STARLINK-37192          
1 68342U 26059X   26166.16668980  .00051145  00000+0  15161-2 0  9991
2 68342  53.1577 250.6570 0001189  87.7349  68.7948 15.34366881  5861
STARLINK-37158          
1 68343U 26059Y   26165.52699560  .00020141  00000+0  60541-3 0  9994
2 68343  53.1600 254.0694 0001269  95.6789 264.4358 15.34412153 13064
STARLINK-36380          
1 68344U 26059Z   26165.53348903  .00024628  00000+0  86287-3 0  9997
2 68344  53.1590 259.0944 0001370  82.9480 277.1676 15.29359915 12991
STARLINK-37214          
1 68345U 26059AA  26165.52900990  .00017532  00000+0  52908-3 0  9996
2 68345  53.1591 253.3631 0001311  82.1285 277.9866 15.34382733 13072
STARLINK-37169          
1 68346U 26059AB  26165.97453545  .00021653  00000+0  65019-3 0  9991
2 68346  53.1589 251.8805 0001503  87.1128 273.0047 15.34396757 13136
STARLINK-37136          
1 68347U 26059AC  26165.96525122  .00022015  00000+0  75313-3 0  9993
2 68347  53.1587 256.0894 0001628  87.4859 272.6328 15.30203469 13075
STARLINK-37182          
1 68348U 26059AD  26165.95770434  .00017116  00000+0  51644-3 0  9998
2 68348  53.1611 251.7796 0001714  75.9288 284.1905 15.34407271 13138
STARLINK-37183          
1 68349U 26059AE  26165.57019524  .00027610  00000+0  94051-3 0  9992
2 68349  53.1589 257.8869 0001121  97.4052 262.7076 15.30211680 13012
CENTISPACE-2 S1         
1 68350U 26060A   26166.21745744  .00000185  00000+0  69755-4 0  9990
2 68350  54.9821  45.0352 0007887 277.7617  82.2482 14.65039041 12461
CENTISPACE-2 S2         
1 68351U 26060B   26165.96744449  .00000523  00000+0  13569-3 0  9990
2 68351  54.9821  46.2551 0006429 286.5024  73.5264 14.63741872 12424
CENTISPACE-2 S3         
1 68352U 26060C   26165.99785413  .00000722  00000+0  16844-3 0  9990
2 68352  54.9816  45.7725 0011418 290.8572  69.1200 14.65248378 12433
CENTISPACE-2 S4         
1 68353U 26060D   26166.00933859  .00000715  00000+0  17058-3 0  9993
2 68353  54.9841  45.8525 0013277 292.9094  67.0498 14.64244872 12438
CENTISPACE-2 S5         
1 68354U 26060E   26165.99898308  .00000688  00000+0  16465-3 0  9990
2 68354  54.9767  45.7375 0010956 290.8473  69.1348 14.64524906 12433
CENTISPACE-2 S6         
1 68355U 26060F   26165.94538010  .00000281  00000+0  89332-4 0  9990
2 68355  54.9766  46.0902 0015704 293.7245  66.2102 14.64000249 12422
CENTISPACE-2 S7         
1 68356U 26060G   26165.99104593 -.00000117  00000+0  14171-4 0  9999
2 68356  54.9868  45.7804 0016364 297.6207  62.3126 14.64781937 12431
CENTISPACE-2 S8         
1 68357U 26060H   26165.99180334  .00000720  00000+0  16837-3 0  9996
2 68357  54.9863  45.7779 0011839 293.5001  66.4750 14.65165538 12439
CENTISPACE-2 S9         
1 68358U 26060J   26165.94585228  .00000683  00000+0  16556-3 0  9999
2 68358  54.9817  46.1339 0013339 292.3339  67.6242 14.63984722 12424
CENTISPACE-2 S10        
1 68359U 26060K   26165.99451339  .00000688  00000+0  16573-3 0  9994
2 68359  54.9788  45.7353 0011911 291.7839  68.1888 14.64203070 12439
RASSVET-3 1             
1 68360U 26061A   26165.15776334 -.00414210  00000+0 -35953-2 0  9994
2 68360  82.2920  15.6879 0005500 127.0495 233.1271 15.70232155 13073
RASSVET-3 2             
1 68361U 26061B   26166.05259382 -.00650381  00000+0 -65565-2 0  9997
2 68361  82.2925  14.5554 0003899 151.3969 208.7505 15.67280010 13226
RASSVET-3 3             
1 68362U 26061C   26164.30037304 -.00626337  00000+0 -25946-1 0  9994
2 68362  82.2957  18.0450 0009683  28.0785 332.0973 15.26243352 12850
RASSVET-3 5             
1 68364U 26061E   26165.09272499 -.00445708  00000+0 -26335-1 0  9993
2 68364  82.2960  18.0574 0011348  49.5684 310.6535 15.13647322 12925
RASSVET-3 6             
1 68365U 26061F   26166.14003319 -.00515364  00000+0 -25904-1 0  9991
2 68365  82.2936  16.6428 0007025 348.9840  11.1239 15.19679927 13105
RASSVET-3 7             
1 68366U 26061G   26164.31257114 -.00708478  00000+0 -28269-1 0  9990
2 68366  82.2946  17.8986 0009569 148.3770 211.8046 15.27779588 12868
RASSVET-3 8             
1 68367U 26061H   26166.14320434 -.00170871  00000+0 -17682-2 0  9998
2 68367  82.2933  14.5292 0002112 350.9158   9.2061 15.65225923 13236
RASSVET-3 9             
1 68368U 26061J   26165.85662665 -.00675253  00000+0 -72780-2 0  9995
2 68368  82.2939  15.0915 0006832 117.0059 243.1898 15.65658149 13176
RASSVET-3 10            
1 68369U 26061K   26166.13071876  .00079591  12815-5  17637-3 0  9991
2 68369  82.2898  13.8389 0009753 144.3737 215.8192 15.97755457 13272
RASSVET-3 11            
1 68370U 26061L   26166.07073691 -.00008070  00000+0 -55986-4 0  9996
2 68370  82.2930  14.4176 0008329 169.4718 190.6722 15.74575387 13239
RASSVET-3 12            
1 68371U 26061M   26164.33815120 -.00499161  00000+0 -27478-1 0  9992
2 68371  82.2938  18.4148 0009647 214.6946 145.3659 15.16419726 12832
RASSVET-3 13            
1 68372U 26061N   26166.05083595 -.00316484  00000+0 -98352-2 0  9993
2 68372  82.2953  16.8520 0008062 104.6564 255.5573 15.34633153 13089
