OBJECT_NAME,OBJECT_ID,EPOCH,MEAN_MOTION,ECCENTRICITY,INCLINATION,RA_OF_ASC_NODE,ARG_OF_PERICENTER,MEAN_ANOMALY,EPHEMERIS_TYPE,CLASSIFICATION_TYPE,NORAD_CAT_ID,ELEMENT_SET_NO,REV_AT_EPOCH,BSTAR,MEAN_MOTION_DOT,MEAN_MOTION_DDOT
STARLINK-37192,2026-059X,2026-06-15T04:00:01.998720,15.34366881,.0001189,53.1577,250.6570,87.7349,68.7948,0,U,68342,999,586,.15161E-2,.51145E-3,0
STARLINK-37158,2026-059Y,2026-06-14T12:38:52.419840,15.34412153,.00012698,53.1600,254.0694,95.6789,264.4358,0,U,68343,999,1306,.60541199E-3,.20141E-3,0
STARLINK-36380,2026-059Z,2026-06-14T12:48:13.452192,15.29359915,.00013706,53.1590,259.0944,82.9480,277.1676,0,U,68344,999,1299,.86287077E-3,.24628E-3,0
STARLINK-37214,2026-059AA,2026-06-14T12:41:46.455360,15.34382733,.00013112,53.1591,253.3631,82.1285,277.9866,0,U,68345,999,1307,.52908412E-3,.17532E-3,0
STARLINK-37169,2026-059AB,2026-06-14T23:23:19.862880,15.34396757,.0001503,53.1589,251.8805,87.1128,273.0047,0,U,68346,999,1313,.65019E-3,.21653E-3,0
STARLINK-37136,2026-059AC,2026-06-14T23:09:57.705408,15.30203469,.0001628,53.1587,256.0894,87.4859,272.6328,0,U,68347,999,1307,.75313E-3,.22015E-3,0
STARLINK-37182,2026-059AD,2026-06-14T22:59:05.654976,15.34407271,.0001714,53.1611,251.7796,75.9288,284.1905,0,U,68348,999,1313,.51644E-3,.17116E-3,0
STARLINK-37183,2026-059AE,2026-06-14T13:41:04.868736,15.30211680,.0001121,53.1589,257.8869,97.4052,262.7076,0,U,68349,999,1301,.94051E-3,.2761E-3,0
CENTISPACE-2 S1,2026-060A,2026-06-15T05:13:08.322816,14.65039041,.0007887,54.9821,45.0352,277.7617,82.2482,0,U,68350,999,1246,.69755E-4,.185E-5,0
CENTISPACE-2 S2,2026-060B,2026-06-14T23:13:07.203936,14.63741872,.0006429,54.9821,46.2551,286.5024,73.5264,0,U,68351,999,1242,.13569E-3,.523E-5,0
CENTISPACE-2 S3,2026-060C,2026-06-14T23:56:54.596832,14.65248378,.0011418,54.9816,45.7725,290.8572,69.1200,0,U,68352,999,1243,.16844E-3,.722E-5,0
CENTISPACE-2 S4,2026-060D,2026-06-15T00:13:26.854176,14.64244872,.0013277,54.9841,45.8525,292.9094,67.0498,0,U,68353,999,1243,.17058E-3,.715E-5,0
CENTISPACE-2 S5,2026-060E,2026-06-14T23:58:32.138112,14.64524906,.0010956,54.9767,45.7375,290.8473,69.1348,0,U,68354,999,1243,.16465E-3,.688E-5,0
CENTISPACE-2 S6,2026-060F,2026-06-14T22:41:20.840640,14.64000249,.0015704,54.9766,46.0902,293.7245,66.2102,0,U,68355,999,1242,.89332E-4,.281E-5,0
CENTISPACE-2 S7,2026-060G,2026-06-14T23:47:06.368352,14.64781937,.0016364,54.9868,45.7804,297.6207,62.3126,0,U,68356,999,1243,.14171E-4,-.117E-5,0
CENTISPACE-2 S8,2026-060H,2026-06-14T23:48:11.808576,14.65165538,.0011839,54.9863,45.7779,293.5001,66.4750,0,U,68357,999,1243,.16837E-3,.72E-5,0
CENTISPACE-2 S9,2026-060J,2026-06-14T22:42:01.636992,14.63984722,.0013339,54.9817,46.1339,292.3339,67.6242,0,U,68358,999,1242,.16556E-3,.683E-5,0
CENTISPACE-2 S10,2026-060K,2026-06-14T23:52:05.956896,14.64203070,.0011911,54.9788,45.7353,291.7839,68.1888,0,U,68359,999,1243,.16573E-3,.688E-5,0
RASSVET-3 1,2026-061A,2026-06-14T03:47:10.752576,15.70232155,.00055,82.2920,15.6879,127.0495,233.1271,0,U,68360,999,1307,-.35953042E-2,-.41421E-2,0
RASSVET-3 2,2026-061B,2026-06-15T01:15:44.106048,15.67280010,.0003899,82.2925,14.5554,151.3969,208.7505,0,U,68361,999,1322,-.65565E-2,-.650381E-2,0
RASSVET-3 3,2026-061C,2026-06-13T07:12:32.230656,15.26243352,.00096836,82.2957,18.0450,28.0785,332.0973,0,U,68362,999,1285,-.25946275E-1,-.626337E-2,0
RASSVET-3 5,2026-061E,2026-06-14T02:13:31.439136,15.13647322,.00113483,82.2960,18.0574,49.5684,310.6535,0,U,68364,999,1292,-.26335198E-1,-.445708E-2,0
RASSVET-3 6,2026-061F,2026-06-15T03:21:38.867616,15.19679927,.0007025,82.2936,16.6428,348.9840,11.1239,0,U,68365,999,1310,-.25904E-1,-.515364E-2,0
RASSVET-3 7,2026-061G,2026-06-13T07:30:06.146496,15.27779588,.00095695,82.2946,17.8986,148.3770,211.8046,0,U,68366,999,1286,-.28269277E-1,-.708478E-2,0
RASSVET-3 8,2026-061H,2026-06-15T03:26:12.854976,15.65225923,.0002112,82.2933,14.5292,350.9158,9.2061,0,U,68367,999,1323,-.17682E-2,-.170871E-2,0
RASSVET-3 9,2026-061J,2026-06-14T20:33:32.542560,15.65658149,.00068321,82.2939,15.0915,117.0059,243.1898,0,U,68368,999,1317,-.72779543E-2,-.675253E-2,0
RASSVET-3 10,2026-061K,2026-06-15T03:08:14.100864,15.97755457,.0009753,82.2898,13.8389,144.3737,215.8192,0,U,68369,999,1327,.17637E-3,.79591E-3,.12815E-5
RASSVET-3 11,2026-061L,2026-06-15T01:41:51.669024,15.74575387,.0008329,82.2930,14.4176,169.4718,190.6722,0,U,68370,999,1323,-.55986E-4,-.807E-4,0
RASSVET-3 12,2026-061M,2026-06-13T08:06:56.263680,15.16419726,.00096473,82.2938,18.4148,214.6946,145.3659,0,U,68371,999,1283,-.27478247E-1,-.499161E-2,0
RASSVET-3 13,2026-061N,2026-06-15T01:13:12.226080,15.34633153,.0008062,82.2953,16.8520,104.6564,255.5573,0,U,68372,999,1308,-.98352E-2,-.316484E-2,0
